LANDSAT 9               
1 49260U 21088A   24094.80212022  .00000542  00000+0  13029-3 0  9994
2 49260  98.1922 165.6634 0001443  85.3728 274.7636 14.57116070133868
